[{"OBJECT_NAME":"STARLINK-1309","OBJECT_ID":"2020-019BG","EPOCH":"2026-03-09T10:26:34.247904","MEAN_MOTION":15.54780234,"ECCENTRICITY":0.00056157,"INCLINATION":53.0666,"RA_OF_ASC_NODE":124.8394,"ARG_OF_PERICENTER":27.8152,"MEAN_ANOMALY":332.3157,"EPHEMERIS_TYPE":0,"CLASSIFICATION_TYPE":"U","NORAD_CAT_ID":45414,"ELEMENT_SET_NO":999,"REV_AT_EPOCH":32999,"BSTAR":0.0015124832,"MEAN_MOTION_DOT":0.00103315,"MEAN_MOTION_DDOT":0},{"OBJECT_NAME":"STARLINK-2582","OBJECT_ID":"2021-040AJ","EPOCH":"2026-03-10T00:00:02.999808","MEAN_MOTION":15.55262081,"ECCENTRICITY":0.0004224,"INCLINATION":53.0578,"RA_OF_ASC_NODE":128.9245,"ARG_OF_PERICENTER":359.6111,"MEAN_ANOMALY":272.6873,"EPHEMERIS_TYPE":0,"CLASSIFICATION_TYPE":"U","NORAD_CAT_ID":48460,"ELEMENT_SET_NO":999,"REV_AT_EPOCH":576,"BSTAR":0.0026278943,"MEAN_MOTION_DOT":0.00184929,"MEAN_MOTION_DDOT":0}]
