STARLINK-1309           
1 45414U 20019BG  26068.43511861  .00103315  00000+0  15125-2 0  9999
2 45414  53.0666 124.8394 0005615  27.8152 332.3157 15.54780234329994
STARLINK-2582           
1 48460U 21040AJ  26069.00003471  .00184929  00000+0  26279-2 0  9997
2 48460  53.0578 128.9245 0004224 359.6111 272.6873 15.55262081  5769
